[
    {
        "CCSDS_OMM_VERS": "3.0",
        "COMMENT": "GENERATED VIA SPACE-TRACK.ORG API",
        "CREATION_DATE": "2025-03-02T09:28:08",
        "ORIGINATOR": "18 SPCS",
        "OBJECT_NAME": "BEIDOU 5",
        "OBJECT_ID": "2010-036A",
        "CENTER_NAME": "EARTH",
        "REF_FRAME": "TEME",
        "TIME_SYSTEM": "UTC",
        "MEAN_ELEMENT_THEORY": "SGP4",
        "EPOCH": "2025-03-01T15:59:45.434112",
        "MEAN_MOTION": "1.00255678",
        "ECCENTRICITY": "0.00453560",
        "INCLINATION": "54.2685",
        "RA_OF_ASC_NODE": "167.2362",
        "ARG_OF_PERICENTER": "209.7108",
        "MEAN_ANOMALY": "128.2733",
        "EPHEMERIS_TYPE": "0",
        "CLASSIFICATION_TYPE": "U",
        "NORAD_CAT_ID": "36828",
        "ELEMENT_SET_NO": "999",
        "REV_AT_EPOCH": "5335",
        "BSTAR": "0.00000000000000",
        "MEAN_MOTION_DOT": "-0.00000132",
        "MEAN_MOTION_DDOT": "0.0000000000000",
        "SEMIMAJOR_AXIS": "42169.248",
        "PERIOD": "1436.328",
        "APOAPSIS": "35982.376",
        "PERIAPSIS": "35599.850",
        "OBJECT_TYPE": "PAYLOAD",
        "RCS_SIZE": "LARGE",
        "COUNTRY_CODE": "PRC",
        "LAUNCH_DATE": "2010-07-31",
        "SITE": "XSC",
        "DECAY_DATE": null,
        "FILE": "4656805",
        "GP_ID": "282044506",
        "TLE_LINE0": "0 BEIDOU 5",
        "TLE_LINE1": "1 36828U 10036A   25060.66649808 -.00000132  00000-0  00000-0 0  9994",
        "TLE_LINE2": "2 36828  54.2685 167.2362 0045356 209.7108 128.2733  1.00255678 53352"
    }
]